GLOBALSTAR M024         
1 25883U 99043A   25351.72465319 -.00000114  00000+0 -17308-2 0  9992
2 25883  52.0049 326.4968 0001770  32.4012 139.2373 11.10166225135241
GLOBALSTAR M027         
1 25884U 99043B   25351.87410741 -.00000018  00000+0  17369-2 0  9997
2 25884  52.0236  49.3448 0020989 287.1061  72.7433 11.04372368161539
GLOBALSTAR M054         
1 25885U 99043C   25351.75875809 -.00000069  00000+0  53718-4 0  9991
2 25885  52.0108 146.0931 0005926 126.4080 246.1712 11.39224916139973
GLOBALSTAR M053         
1 25886U 99043D   25351.76470638 -.00000088  00000+0 -56620-3 0  9990
2 25886  51.9976 103.3587 0003611  52.1127 117.7591 11.27668939140158
GLOBALSTAR M058         
1 25907U 99049A   25351.68199042 -.00000099  00000+0 -19929-3 0  9991
2 25907  51.9970 339.1922 0001720 270.4520  89.6117 11.93206482563445
GLOBALSTAR M050         
1 25908U 99049B   25351.89380066 -.00000097  00000+0 -10020-3 0  9994
2 25908  52.0011 332.5772 0009385  37.8154 335.5223 12.07461753170385
GLOBALSTAR M033         
1 25909U 99049C   25351.82683082 -.00000084  00000+0  74461-4 0  9997
2 25909  51.9877 191.9101 0013103 284.2269  75.7123 12.20294761558161
GLOBALSTAR M055         
1 25910U 99049D   25351.83265991 -.00000044  00000+0  43382-3 0  9998
2 25910  51.9986 193.6979 0007525 144.1123 216.0236 12.29438227190871
